{
  "links" : {
    "next" : "https://api.nasa.gov/neo/rest/v1/feed?start_date=2004-10-16&end_date=2004-10-16&detailed=true&api_key=t0TVs3DtDT2H8Oy2Zy8m2eVrNsAVKAexjcZXUckd",
    "prev" : "https://api.nasa.gov/neo/rest/v1/feed?start_date=2004-10-14&end_date=2004-10-14&detailed=true&api_key=t0TVs3DtDT2H8Oy2Zy8m2eVrNsAVKAexjcZXUckd",
    "self" : "https://api.nasa.gov/neo/rest/v1/feed?start_date=2004-10-15&end_date=2004-10-15&detailed=true&api_key=t0TVs3DtDT2H8Oy2Zy8m2eVrNsAVKAexjcZXUckd"
  },
  "element_count" : 9,
  "near_earth_objects" : {
    "2004-10-15" : [ {
      "links" : {
        "self" : "https://api.nasa.gov/neo/rest/v1/neo/2190119?api_key=t0TVs3DtDT2H8Oy2Zy8m2eVrNsAVKAexjcZXUckd"
      },
      "neo_reference_id" : "2190119",
      "name" : "190119 (2004 VA64)",
      "nasa_jpl_url" : "http://ssd.jpl.nasa.gov/sbdb.cgi?sstr=2190119",
      "absolute_magnitude_h" : 17.1,
      "estimated_diameter" : {
        "kilometers" : {
          "estimated_diameter_min" : 1.0105434154,
          "estimated_diameter_max" : 2.2596437711
        },
        "meters" : {
          "estimated_diameter_min" : 1010.5434154201,
          "estimated_diameter_max" : 2259.643771094
        },
        "miles" : {
          "estimated_diameter_min" : 0.6279223726,
          "estimated_diameter_max" : 1.4040771097
        },
        "feet" : {
          "estimated_diameter_min" : 3315.4312590467,
          "estimated_diameter_max" : 7413.5296699562
        }
      },
      "is_potentially_hazardous_asteroid" : false,
      "close_approach_data" : [ {
        "close_approach_date" : "2004-10-15",
        "epoch_date_close_approach" : 1097823600000,
        "relative_velocity" : {
          "kilometers_per_second" : "39.6291727178",
          "kilometers_per_hour" : "142665.021783954",
          "miles_per_hour" : "88646.4964523685"
        },
        "miss_distance" : {
          "astronomical" : "0.351214691",
          "lunar" : "136.6225128174",
          "kilometers" : "52540968",
          "miles" : "32647444"
        },
        "orbiting_body" : "Earth"
      } ],
      "orbital_data" : {
        "orbit_id" : "50",
        "orbit_determination_date" : "2017-04-06 09:25:43",
        "orbit_uncertainty" : "0",
        "minimum_orbit_intersection" : ".299212",
        "jupiter_tisserand_invariant" : "2.653",
        "epoch_osculation" : "2458000.5",
        "eccentricity" : ".8905528338599435",
        "semi_major_axis" : "2.466029001863216",
        "inclination" : "29.93974535303317",
        "ascending_node_longitude" : "225.5387804241728",
        "orbital_period" : "1414.476370047699",
        "perihelion_distance" : ".269899885873121",
        "perihelion_argument" : "19.91205534529546",
        "aphelion_distance" : "4.662158117853311",
        "perihelion_time" : "2457492.072755817520",
        "mean_anomaly" : "129.4003998805018",
        "mean_motion" : ".2545111446350001",
        "equinox" : "J2000"
      }
    }, {
      "links" : {
        "self" : "https://api.nasa.gov/neo/rest/v1/neo/2235756?api_key=t0TVs3DtDT2H8Oy2Zy8m2eVrNsAVKAexjcZXUckd"
      },
      "neo_reference_id" : "2235756",
      "name" : "235756 (2004 VC)",
      "nasa_jpl_url" : "http://ssd.jpl.nasa.gov/sbdb.cgi?sstr=2235756",
      "absolute_magnitude_h" : 18.7,
      "estimated_diameter" : {
        "kilometers" : {
          "estimated_diameter_min" : 0.4836764882,
          "estimated_diameter_max" : 1.0815335068
        },
        "meters" : {
          "estimated_diameter_min" : 483.6764882185,
          "estimated_diameter_max" : 1081.533506775
        },
        "miles" : {
          "estimated_diameter_min" : 0.3005425432,
          "estimated_diameter_max" : 0.6720335566
        },
        "feet" : {
          "estimated_diameter_min" : 1586.8651696069,
          "estimated_diameter_max" : 3548.3383903678
        }
      },
      "is_potentially_hazardous_asteroid" : true,
      "close_approach_data" : [ {
        "close_approach_date" : "2004-10-15",
        "epoch_date_close_approach" : 1097823600000,
        "relative_velocity" : {
          "kilometers_per_second" : "25.9627668184",
          "kilometers_per_hour" : "93465.9605461871",
          "miles_per_hour" : "58076.1130960461"
        },
        "miss_distance" : {
          "astronomical" : "0.2879687194",
          "lunar" : "112.0198364258",
          "kilometers" : "43079508",
          "miles" : "26768366"
        },
        "orbiting_body" : "Earth"
      } ],
      "orbital_data" : {
        "orbit_id" : "55",
        "orbit_determination_date" : "2017-04-06 09:25:04",
        "orbit_uncertainty" : "0",
        "minimum_orbit_intersection" : ".0355664",
        "jupiter_tisserand_invariant" : "5.290",
        "epoch_osculation" : "2458000.5",
        "eccentricity" : ".2588036172879105",
        "semi_major_axis" : "1.133350340863139",
        "inclination" : "39.14671932571256",
        "ascending_node_longitude" : "194.1759772629877",
        "orbital_period" : "440.7016700008738",
        "perihelion_distance" : ".8400351729932723",
        "perihelion_argument" : "94.19155698843099",
        "aphelion_distance" : "1.426665508733006",
        "perihelion_time" : "2458081.348177629098",
        "mean_anomaly" : "293.9568104055118",
        "mean_motion" : ".8168791373068456",
        "equinox" : "J2000"
      }
    }, {
      "links" : {
        "self" : "https://api.nasa.gov/neo/rest/v1/neo/2288914?api_key=t0TVs3DtDT2H8Oy2Zy8m2eVrNsAVKAexjcZXUckd"
      },
      "neo_reference_id" : "2288914",
      "name" : "288914 (2004 SX)",
      "nasa_jpl_url" : "http://ssd.jpl.nasa.gov/sbdb.cgi?sstr=2288914",
      "absolute_magnitude_h" : 19.0,
      "estimated_diameter" : {
        "kilometers" : {
          "estimated_diameter_min" : 0.4212646106,
          "estimated_diameter_max" : 0.9419763057
        },
        "meters" : {
          "estimated_diameter_min" : 421.2646105562,
          "estimated_diameter_max" : 941.9763057186
        },
        "miles" : {
          "estimated_diameter_min" : 0.2617616123,
          "estimated_diameter_max" : 0.5853167591
        },
        "feet" : {
          "estimated_diameter_min" : 1382.1017848971,
          "estimated_diameter_max" : 3090.4735428537
        }
      },
      "is_potentially_hazardous_asteroid" : false,
      "close_approach_data" : [ {
        "close_approach_date" : "2004-10-15",
        "epoch_date_close_approach" : 1097823600000,
        "relative_velocity" : {
          "kilometers_per_second" : "7.6542040747",
          "kilometers_per_hour" : "27555.1346689093",
          "miles_per_hour" : "17121.6890946898"
        },
        "miss_distance" : {
          "astronomical" : "0.4096869401",
          "lunar" : "159.3682250977",
          "kilometers" : "61288296",
          "miles" : "38082780"
        },
        "orbiting_body" : "Earth"
      } ],
      "orbital_data" : {
        "orbit_id" : "40",
        "orbit_determination_date" : "2017-04-06 09:24:13",
        "orbit_uncertainty" : "0",
        "minimum_orbit_intersection" : ".322238",
        "jupiter_tisserand_invariant" : "4.010",
        "epoch_osculation" : "2458000.5",
        "eccentricity" : ".3274403202018351",
        "semi_major_axis" : "1.764796547607033",
        "inclination" : "15.28260274820939",
        "ascending_node_longitude" : "178.6217035061066",
        "orbital_period" : "856.3284937741338",
        "perihelion_distance" : "1.186931000967493",
        "perihelion_argument" : "258.5084809533785",
        "aphelion_distance" : "2.342662094246573",
        "perihelion_time" : "2457652.946416097465",
        "mean_anomaly" : "146.1113242343123",
        "mean_motion" : ".4203994175335172",
        "equinox" : "J2000"
      }
    } ]
  }
}